IRIDIUM 36 [-]          
1 24967U 97056C   23328.30915088  .00000717  00000+0  23761-3 0  9993
2 24967  86.3990  52.6803 0002280  92.3436 267.8022 14.36518583370234
IRIDIUM 39 [-]          
1 25042U 97069D   23328.38582885  .00001304  00000+0  34853-3 0  9992
2 25042  86.3902  95.6157 0020013  54.9782 305.3295 14.47513827366348
IRIDIUM 38 [-]          
1 25043U 97069E   23328.45153157  .00000882  00000+0  29130-3 0  9999
2 25043  86.3938 113.1124 0002743 138.7214 221.4191 14.36975521363968
IRIDIUM 42 [-]          
1 25077U 97077A   23328.47025618  .00000545  00000+0  18357-3 0  9992
2 25077  86.3940 118.5795 0002161 109.4019 250.7411 14.35280591359301
IRIDIUM 44 [-]          
1 25078U 97077B   23328.42036072  .00000915  00000+0  28977-3 0  9994
2 25078  86.3937 102.0535 0003946  98.0344 262.1302 14.39083419361587
IRIDIUM 45 [-]          
1 25104U 97082A   23328.47165372  .00014844  00000+0  94557-3 0  9994
2 25104  86.3731 318.3528 0173381 264.2915  93.8524 14.96964225366020
IRIDIUM 24 [-]          
1 25105U 97082B   23328.48361569  .00000950  00000+0  29043-3 0  9993
2 25105  86.3885 321.9785 0012426 152.0830 208.1039 14.40842689361001
IRIDIUM 51 [-]          
1 25262U 98018A   23328.52237388  .00014003  00000+0  76166-3 0  9995
2 25262  86.3903 328.7498 0160355 216.2340 142.7952 15.03883503360439
